ONEWEB-0271             
1 48989U 21060Y   26025.14454346  .00000913  00000+0  23532-2 0  9992
2 48989  87.9020 257.2508 0001355  79.1102 281.0181 13.16604165220849
ONEWEB-0272             
1 48990U 21060Z   26024.63474422  .00000045  00000+0  84579-4 0  9990
2 48990  87.9013 257.3652 0001422  72.1662 287.9624 13.16595807220729
ONEWEB-0273             
1 48991U 21060AA  26025.11289638 -.00000109  00000+0 -31878-3 0  9994
2 48991  87.9012 257.2672 0001211  81.5169 278.6099 13.16595398220764
ONEWEB-0274             
1 48992U 21060AB  26025.13822650 -.00000160  00000+0 -45216-3 0  9992
2 48992  87.9004 257.2803 0001585  69.2710 290.8591 13.16594574220804
ONEWEB-0275             
1 48993U 21060AC  26025.12714012 -.00000197  00000+0 -54921-3 0  9997
2 48993  87.9014 257.2575 0001425  78.3950 281.7341 13.16594710220738
ONEWEB-0276             
1 48994U 21060AD  26025.16039637 -.00000005  00000+0 -46948-4 0  9994
2 48994  87.9014 257.2507 0001366  88.3355 271.7932 13.16594662220751
ONEWEB-0277             
1 48995U 21060AE  26024.94507772  .00000130  00000+0  30700-3 0  9995
2 48995  87.9007 257.3135 0001342  82.5550 277.5733 13.16594779220717
ONEWEB-0278             
1 48996U 21060AF  26024.63157958  .00000115  00000+0  26601-3 0  9997
2 48996  87.9015 257.3525 0001625  88.6937 271.4380 13.16596483220805
ONEWEB-0279             
1 48997U 21060AG  26025.09547285 -.00000152  00000+0 -43229-3 0  9993
2 48997  87.9018 257.2586 0001271  70.1247 290.0020 13.16594964220790
ONEWEB-0280             
1 48998U 21060AH  26025.11052175  .00000025  00000+0  31067-4 0  9991
2 48998  87.9017 257.2612 0001279  94.9845 265.1432 13.16595247220735
ONEWEB-0281             
1 48999U 21060AJ  26025.11606365 -.00000160  00000+0 -45179-3 0  9998
2 48999  87.9014 257.2550 0001527  77.5785 282.5516 13.16595371220802
ONEWEB-0282             
1 49000U 21060AK  26025.14614346 -.00000106  00000+0 -31032-3 0  9996
2 49000  87.9017 257.2597 0001296  83.2496 276.8783 13.16594088220789
ONEWEB-0283             
1 49001U 21060AL  26025.13505646 -.00000236  00000+0 -65072-3 0  9993
2 49001  87.9014 257.2619 0001303  77.7191 282.4086 13.16594747220793
ONEWEB-0284             
1 49002U 21060AM  26025.12872965 -.00000087  00000+0 -26140-3 0  9991
2 49002  87.9018 257.2535 0001469  97.1371 262.9927 13.16595319220775
ONEWEB-0285             
1 49075U 21075A   26024.42875152  .00000572  00000+0  15535-2 0  9992
2 49075  87.8933  19.1990 0001723  85.6212 274.5113 13.12442308216359
ONEWEB-0286             
1 49076U 21075B   26024.71646691  .00000080  00000+0  18674-3 0  9991
2 49076  87.8933  19.1720 0001981  86.0113 274.1242 13.12444790215740
ONEWEB-0287             
1 49077U 21075C   26025.02699154 -.00000038  00000+0 -13029-3 0  9993
2 49077  87.9090  34.3154 0002251  91.7895 268.3494 13.17648886214770
ONEWEB-0288             
1 49078U 21075D   26024.92159080 -.00000277  00000+0 -80432-3 0  9998
2 49078  87.8936  19.0954 0001852  90.5966 269.5375 13.12441492216399
ONEWEB-0289             
1 49079U 21075E   26025.29345521  .00000151  00000+0  35642-3 0  9999
2 49079  87.9086  34.2745 0001721 103.9989 256.1334 13.17648358215383
ONEWEB-0290             
1 49080U 21075F   26024.43129827 -.00000027  00000+0 -10395-3 0  9997
2 49080  87.9095  34.4116 0001401 105.6223 254.5063 13.17650511214681
ONEWEB-0291             
1 49081U 21075G   26025.25140093  .00000014  00000+0  17120-5 0  9996
2 49081  87.9098  34.2563 0002090  99.4883 260.6485 13.17651610214784
ONEWEB-0293             
1 49082U 21075H   26025.04890536 -.00000019  00000+0 -81147-4 0  9994
2 49082  87.9089  34.3123 0001800  95.0711 265.0627 13.17650922214780
ONEWEB-0294             
1 49083U 21075J   26025.23330752 -.00000405  00000+0 -11606-2 0  9995
2 49083  87.8940  19.0360 0001660  98.0602 262.0715 13.12441548215823
ONEWEB-0295             
1 49084U 21075K   26025.04806621  .00000003  00000+0 -25158-4 0  9990
2 49084  87.9084  34.3169 0002148  95.7168 264.4209 13.17647707214748
ONEWEB-0296             
1 49085U 21075L   26024.98427740  .00000142  00000+0  36073-3 0  9994
2 49085  87.8939  19.0881 0002083  96.8111 263.3255 13.12440929215793
ONEWEB-0297             
1 49086U 21075M   26024.93852965 -.00000359  00000+0 -10338-2 0  9998
2 49086  87.8935  19.1255 0001906  86.8994 273.2352 13.12444461216397
ONEWEB-0298             
1 49087U 21075N   26025.28022639  .00000019  00000+0  15842-4 0  9993
2 49087  87.9088  34.2673 0001945  86.2464 273.8890 13.17646838214803
ONEWEB-0299             
1 49088U 21075P   26025.05396472  .00000019  00000+0  16623-4 0  9996
2 49088  87.9097  34.2787 0002011  91.0619 269.0743 13.17651067214759
ONEWEB-0300             
1 49089U 21075Q   26024.93090971 -.00000293  00000+0 -85019-3 0  9998
2 49089  87.8933  19.0927 0001902  76.2822 283.8519 13.12445571216410
ONEWEB-0301             
1 49090U 21075R   26024.99104876 -.00000128  00000+0 -39014-3 0  9997
2 49090  87.8933  19.0811 0001800  74.9980 285.1348 13.12440020215789
ONEWEB-0302             
1 49091U 21075S   26025.20622210  .00000179  00000+0  46115-3 0  9994
2 49091  87.8937  19.0467 0001772  99.0054 261.1276 13.12441895215795
ONEWEB-0304             
1 49092U 21075T   26025.02866782 -.00000053  00000+0 -16940-3 0  9995
2 49092  87.9095  34.3140 0001909  92.1114 268.0236 13.17649533214721
ONEWEB-0305             
1 49093U 21075U   26025.24972720  .00000057  00000+0  11473-3 0  9998
2 49093  87.9096  34.2482 0002252  93.0417 267.0972 13.17650445214785
ONEWEB-0308             
1 49094U 21075V   26024.43706869  .00000523  00000+0  14197-2 0  9991
2 49094  87.8936  19.1932 0001811  86.7911 273.3425 13.12441290215705
ONEWEB-0309             
1 49095U 21075W   26025.25308973 -.00000003  00000+0 -39709-4 0  9990
2 49095  87.9098  34.2626 0001764 104.4621 255.6706 13.17651072214752
ONEWEB-0310             
1 49096U 21075X   26024.98596891  .00000048  00000+0  98007-4 0  9991
2 49096  87.8929  19.1175 0001749  88.2382 271.8947 13.12440406216405
ONEWEB-0311             
1 49097U 21075Y   26025.03204556  .00000004  00000+0 -22768-4 0  9997
2 49097  87.9093  34.3018 0002172  89.2754 270.8626 13.17649161214774
ONEWEB-0312             
1 49098U 21075Z   26025.27502631 -.00000014  00000+0 -70347-4 0  9997
2 49098  87.9084  34.2750 0002066  98.5264 261.6102 13.17650964214789
ONEWEB-0313             
1 49099U 21075AA  26025.05214719  .00000049  00000+0  94023-4 0  9994
2 49099  87.9081  34.3259 0001948  90.1838 269.9517 13.17650964214742
ONEWEB-0314             
1 49100U 21075AB  26024.41104313  .00000005  00000+0 -20486-4 0  9999
2 49100  87.9096  34.4124 0002149  99.0987 261.0387 13.17650861214632
ONEWEB-0315             
1 49101U 21075AC  26024.42522074  .00000523  00000+0  14173-2 0  9997
2 49101  87.8938  19.1812 0002139  83.0433 277.0939 13.12443887216319
ONEWEB-0316             
1 49102U 21075AD  26025.20756117  .00000069  00000+0  14169-3 0  9993
2 49102  87.9191   3.8515 0001898  83.6518 276.4830 13.18685308218365
ONEWEB-0317             
1 49103U 21075AE  26025.26720006  .00000227  00000+0  59475-3 0  9993
2 49103  87.8939  19.0356 0001177 105.6236 254.5023 13.12443377216449
ONEWEB-0318             
1 49104U 21075AF  26025.20426002  .00000098  00000+0  21666-3 0  9994
2 49104  87.9200   3.8407 0002123  83.4674 276.6700 13.18686133218322
ONEWEB-0319             
1 49105U 21075AG  26025.26153613  .00000038  00000+0  65572-4 0  9995
2 49105  87.9085  34.2723 0002348  82.9979 277.1420 13.17649103214780
ONEWEB-0323             
1 49106U 21075AH  26025.24856655 -.00000358  00000+0 -10298-2 0  9990
2 49106  87.8941  19.0218 0002488  87.3095 272.8319 13.12443924215805
ONEWEB-0329             
1 49107U 21075AJ  26024.73842310 -.00000004  00000+0 -43769-4 0  9996
2 49107  87.9082  34.3773 0001957  93.0519 267.0837 13.17649755214696
ONEWEB-0330             
1 49108U 21075AK  26025.27081612  .00000006  00000+0 -18160-4 0  9995
2 49108  87.9081  34.2785 0001839  97.2327 262.9013 13.17649948214807
ONEWEB-0292             
1 49186U 21083A   26025.25639717  .00000339  00000+0  89398-3 0  9991
2 49186  87.8999 348.6615 0002013  79.3498 280.7858 13.13470952212164
ONEWEB-0303             
1 49187U 21083B   26024.44219271  .00000117  00000+0  26332-3 0  9994
2 49187  87.9200   3.9942 0001985  83.9351 276.2007 13.18686466211036
ONEWEB-0306             
1 49188U 21083C   26024.88755196  .00000066  00000+0  13443-3 0  9996
2 49188  87.9201   3.8893 0001603  87.0973 273.0342 13.18687030211130
ONEWEB-0307             
1 49189U 21083D   26025.25047248  .00000147  00000+0  36867-3 0  9996
2 49189  87.9005 348.6513 0001846  81.2952 278.8386 13.13469422212167
ONEWEB-0320             
1 49190U 21083E   26025.19848891  .00000099  00000+0  21919-3 0  9992
2 49190  87.9193   3.8545 0001840  86.2251 273.9091 13.18686064211136
ONEWEB-0321             
1 49191U 21083F   26024.49030160  .00000154  00000+0  34632-3 0  9995
2 49191  87.9233 303.1063 0001421  78.3938 281.7355 13.20772880217863
ONEWEB-0322             
1 49192U 21083G   26024.86534982  .00000101  00000+0  24144-3 0  9997
2 49192  87.9004 348.7320 0001334  73.5274 286.6002 13.13471081212100
ONEWEB-0324             
1 49193U 21083H   26024.88095706  .00000096  00000+0  21165-3 0  9999
2 49193  87.9197   3.8976 0001865  90.2142 269.9204 13.18686737211118
ONEWEB-0325             
1 49194U 21083J   26025.18774925  .00000762  00000+0  19009-2 0  9994
2 49194  87.9196   3.8557 0001800  83.2320 276.9017 13.18684126211167
ONEWEB-0326             
1 49195U 21083K   26024.89924498  .00000056  00000+0  10995-3 0  9996
2 49195  87.9199   3.9001 0002082  80.6052 279.5315 13.18685914211113
ONEWEB-0327             
1 49196U 21083L   26024.89897037  .00000055  00000+0  10788-3 0  9994
2 49196  87.9191   3.9159 0002088  77.2525 282.8841 13.18686039211135
